{"type":"FeatureCollection","features":[{"type":"Feature","properties":{},"geometry":{"type":"Polygon","coordinates":[[[-4.24067,55.8433],[-4.24077,55.8435],[-4.24073,55.84415],[-4.24053,55.84457],[-4.23973,55.84554],[-4.23904,55.8462],[-4.23856,55.84659],[-4.2385,55.84663],[-4.2385,55.84561],[-4.23864,55.84552],[-4.23958,55.84469],[-4.23985,55.84438],[-4.23992,55.84409],[-4.23986,55.84388],[-4.23953,55.84348],[-4.23927,55.84329],[-4.2385,55.84307],[-4.2385,55.84252],[-4.23975,55.84282],[-4.24046,55.84309],[-4.24067,55.8433]]]}},{"type":"Feature","properties":{},"geometry":{"type":"Polygon","coordinates":[[[-4.2468,55.85307],[-4.24669,55.85305],[-4.24651,55.85292],[-4.24581,55.85264],[-4.24556,55.85244],[-4.24407,55.85175],[-4.2436,55.85158],[-4.23953,55.84975],[-4.23894,55.84943],[-4.2385,55.84924],[-4.2385,55.84855],[-4.24003,55.84925],[-4.24106,55.8498],[-4.24238,55.85036],[-4.24626,55.85179],[-4.24763,55.85214],[-4.2468,55.85307]]]}},{"type":"Feature","properties":{},"geometry":{"type":"Polygon","coordinates":[[[-4.25061,55.85424],[-4.25023,55.85399],[-4.24752,55.85319],[-4.24704,55.85313],[-4.24789,55.85217],[-4.24818,55.85232],[-4.24996,55.85282],[-4.25116,55.85314],[-4.2516,55.8532],[-4.25061,55.85424]]]}},{"type":"Feature","properties":{},"geometry":{"type":"Polygon","coordinates":[[[-4.25754,55.85612],[-4.25746,55.85612],[-4.25724,55.85602],[-4.25576,55.85561],[-4.2547,55.85525],[-4.25389,55.85506],[-4.25384,55.85509],[-4.25086,55.85428],[-4.25181,55.85329],[-4.25385,55.85394],[-4.25796,55.85495],[-4.25754,55.85612]]]}},{"type":"Feature","properties":{},"geometry":{"type":"Polygon","coordinates":[[[-4.25965,55.8562],[-4.25854,55.85613],[-4.25779,55.85615],[-4.25821,55.85498],[-4.25966,55.85514],[-4.25965,55.8562]]]}},{"type":"Feature","properties":{},"geometry":{"type":"Polygon","coordinates":[[[-4.26998,55.8564],[-4.26691,55.85649],[-4.2662,55.85648],[-4.26465,55.8566],[-4.26141,55.85632],[-4.2599,55.85624],[-4.25992,55.85517],[-4.26404,55.85569],[-4.265,55.85555],[-4.27001,55.85534],[-4.26998,55.8564]]]}},{"type":"Feature","properties":{},"geometry":{"type":"Polygon","coordinates":[[[-4.28187,55.85743],[-4.28172,55.85757],[-4.2811,55.85744],[-4.27961,55.85723],[-4.27924,55.85719],[-4.27919,55.85723],[-4.27905,55.85715],[-4.27847,55.85706],[-4.27398,55.85652],[-4.27057,55.8564],[-4.27059,55.85532],[-4.27148,55.85533],[-4.27442,55.85544],[-4.27594,55.85557],[-4.27937,55.856],[-4.28341,55.85674],[-4.28187,55.85743]]]}},{"type":"Feature","properties":{},"geometry":{"type":"Polygon","coordinates":[[[-4.39384,55.88782],[-4.39313,55.88851],[-4.39339,55.88867],[-4.39235,55.88952],[-4.3922,55.88955],[-4.39151,55.88943],[-4.39088,55.88926],[-4.38724,55.88851],[-4.38684,55.88848],[-4.38605,55.88824],[-4.38564,55.88819],[-4.38525,55.88831],[-4.3852,55.88812],[-4.38493,55.88799],[-4.38181,55.88706],[-4.38153,55.88706],[-4.38107,55.88722],[-4.38064,55.88712],[-4.38116,55.88673],[-4.38113,55.8867],[-4.38057,55.88711],[-4.38068,55.88678],[-4.38053,55.88659],[-4.3776,55.88532],[-4.37721,55.88508],[-4.37657,55.8848],[-4.37619,55.88469],[-4.37583,55.88465],[-4.3754,55.8847],[-4.37513,55.88484],[-4.37486,55.88477],[-4.37474,55.88466],[-4.37491,55.88447],[-4.37488,55.88438],[-4.37461,55.88428],[-4.37381,55.88418],[-4.37374,55.8841],[-4.37378,55.88387],[-4.37313,55.88359],[-4.37255,55.88343],[-4.37247,55.88324],[-4.3725,55.88312],[-4.3715,55.88294],[-4.37149,55.88276],[-4.37133,55.8826],[-4.37089,55.88242],[-4.3691,55.88185],[-4.36712,55.88092],[-4.36692,55.88078],[-4.367,55.88059],[-4.36696,55.88049],[-4.36666,55.88031],[-4.36646,55.88025],[-4.36619,55.88027],[-4.36457,55.88073],[-4.36418,55.88077],[-4.3642,55.88071],[-4.36466,55.88046],[-4.36575,55.88013],[-4.36594,55.88002],[-4.3658,55.87997],[-4.36531,55.87999],[-4.36464,55.87988],[-4.36457,55.87961],[-4.36432,55.87955],[-4.36436,55.87949],[-4.36453,55.87946],[-4.36467,55.87932],[-4.36315,55.87864],[-4.3629,55.87859],[-4.36224,55.87864],[-4.36192,55.87814],[-4.36119,55.87785],[-4.36088,55.87779],[-4.36064,55.87763],[-4.36003,55.87742],[-4.35936,55.87705],[-4.35869,55.87682],[-4.358,55.87649],[-4.35769,55.87649],[-4.35726,55.87678],[-4.35708,55.8768],[-4.35708,55.87671],[-4.35737,55.87645],[-4.35742,55.8763],[-4.35719,55.87615],[-4.35649,55.87586],[-4.35577,55.87561],[-4.35563,55.87568],[-4.35553,55.87564],[-4.35559,55.87554],[-4.35512,55.87538],[-4.35444,55.87533],[-4.35126,55.87436],[-4.35046,55.87416],[-4.35039,55.8741],[-4.35034,55.87373],[-4.3496,55.87372],[-4.34944,55.87347],[-4.3491,55.87328],[-4.34866,55.87322],[-4.34747,55.87268],[-4.34687,55.87291],[-4.3469,55.87285],[-4.34377,55.87157],[-4.34317,55.87136],[-4.34296,55.87107],[-4.34259,55.87078],[-4.34091,55.87019],[-4.34072,55.87017],[-4.33973,55.8702],[-4.33965,55.87003],[-4.33929,55.86992],[-4.33828,55.86984],[-4.33678,55.86959],[-4.33508,55.86945],[-4.33395,55.86928],[-4.33142,55.86914],[-4.3312,55.86938],[-4.32354,55.86897],[-4.32212,55.86884],[-4.32008,55.86857],[-4.31766,55.86813],[-4.31542,55.86758],[-4.31288,55.86678],[-4.31283,55.86651],[-4.31255,55.86636],[-4.31139,55.866],[-4.30912,55.86552],[-4.30883,55.86553],[-4.30839,55.86572],[-4.30546,55.86744],[-4.30486,55.86712],[-4.30498,55.867],[-4.30611,55.86637],[-4.30624,55.86614],[-4.30732,55.86568],[-4.30791,55.86535],[-4.30794,55.86525],[-4.30841,55.8651],[-4.30847,55.86499],[-4.30668,55.8645],[-4.30646,55.86454],[-4.30607,55.86474],[-4.30568,55.86479],[-4.30387,55.86443],[-4.29754,55.86265],[-4.29738,55.86254],[-4.29744,55.86237],[-4.29753,55.86232],[-4.29784,55.86231],[-4.29792,55.8622],[-4.29783,55.86214],[-4.29753,55.86208],[-4.29693,55.86204],[-4.29686,55.86177],[-4.29714,55.86171],[-4.2972,55.8616],[-4.29712,55.86152],[-4.29606,55.86098],[-4.29497,55.86059],[-4.28287,55.85776],[-4.28208,55.85764],[-4.28227,55.85751],[-4.28385,55.85684],[-4.29162,55.85861],[-4.29668,55.85964],[-4.29684,55.8596],[-4.29688,55.85947],[-4.29657,55.85907],[-4.29639,55.85895],[-4.294,55.85838],[-4.29426,55.85793],[-4.29443,55.85777],[-4.2946,55.85776],[-4.29498,55.85719],[-4.29535,55.85725],[-4.29567,55.85674],[-4.29597,55.85673],[-4.29616,55.85647],[-4.29815,55.85688],[-4.29842,55.85698],[-4.29759,55.85879],[-4.29777,55.85898],[-4.29832,55.85918],[-4.29834,55.85928],[-4.29806,55.85941],[-4.29774,55.85938],[-4.29769,55.85948],[-4.29777,55.85963],[-4.29793,55.85972],[-4.29941,55.86015],[-4.29937,55.86037],[-4.29913,55.86054],[-4.29891,55.86095],[-4.2996,55.86132],[-4.29958,55.86136],[-4.3017,55.86222],[-4.30288,55.86258],[-4.30304,55.86254],[-4.30306,55.86246],[-4.30259,55.86134],[-4.3027,55.8612],[-4.30279,55.86118],[-4.3032,55.86125],[-4.30339,55.86136],[-4.30348,55.86148],[-4.3043,55.86281],[-4.30459,55.86284],[-4.30468,55.86281],[-4.30478,55.86296],[-4.30492,55.86303],[-4.30523,55.86309],[-4.30572,55.86311],[-4.30612,55.86332],[-4.30671,55.86337],[-4.3071,55.86359],[-4.30753,55.86359],[-4.30783,55.86375],[-4.30825,55.86381],[-4.30873,55.86403],[-4.30919,55.86417],[-4.30978,55.86428],[-4.30995,55.86446],[-4.31029,55.86451],[-4.316,55.86637],[-4.3166,55.86639],[-4.31712,55.86661],[-4.31746,55.8665],[-4.31759,55.8665],[-4.31838,55.86689],[-4.31932,55.8672],[-4.31976,55.86709],[-4.31992,55.86709],[-4.32069,55.86739],[-4.32099,55.86744],[-4.32125,55.86742],[-4.32169,55.86732],[-4.32257,55.86761],[-4.32293,55.86736],[-4.32312,55.86731],[-4.32385,55.86754],[-4.32384,55.86741],[-4.32355,55.86713],[-4.32389,55.86682],[-4.32407,55.86522],[-4.3243,55.86515],[-4.32532,55.86517],[-4.32543,55.8652],[-4.32548,55.86533],[-4.32537,55.86755],[-4.32549,55.86777],[-4.32585,55.86769],[-4.32661,55.86792],[-4.32703,55.86798],[-4.33224,55.86824],[-4.33508,55.86845],[-4.33647,55.86849],[-4.33749,55.8684],[-4.3378,55.86856],[-4.33987,55.86885],[-4.34171,55.86918],[-4.34224,55.8693],[-4.34407,55.86987],[-4.34417,55.86988],[-4.34435,55.8698],[-4.35173,55.87195],[-4.35198,55.87199],[-4.35219,55.87194],[-4.35217,55.87177],[-4.35111,55.86625],[-4.35126,55.86608],[-4.35242,55.86537],[-4.35263,55.86542],[-4.35409,55.87282],[-4.35429,55.87294],[-4.35474,55.87309],[-4.35491,55.87336],[-4.35583,55.87393],[-4.35656,55.87432],[-4.35922,55.87527],[-4.36098,55.87597],[-4.36246,55.87662],[-4.3634,55.8771],[-4.36386,55.87724],[-4.36403,55.87725],[-4.36419,55.87722],[-4.36483,55.87742],[-4.36773,55.87869],[-4.37108,55.88021],[-4.37123,55.88032],[-4.37136,55.88062],[-4.37149,55.88074],[-4.37222,55.88101],[-4.37414,55.88196],[-4.37927,55.88434],[-4.37943,55.88437],[-4.37958,55.88432],[-4.38087,55.88348],[-4.38111,55.8836],[-4.38082,55.88381],[-4.38114,55.88396],[-4.38099,55.88414],[-4.38054,55.88448],[-4.38052,55.88455],[-4.38149,55.88501],[-4.38162,55.88505],[-4.38178,55.88503],[-4.38282,55.88434],[-4.38295,55.88431],[-4.38315,55.88436],[-4.38355,55.88455],[-4.38357,55.88463],[-4.3829,55.88516],[-4.38285,55.88545],[-4.38302,55.88565],[-4.38298,55.88587],[-4.38333,55.88611],[-4.38369,55.88627],[-4.38641,55.88709],[-4.38682,55.88717],[-4.3874,55.88711],[-4.38773,55.88727],[-4.38847,55.88745],[-4.38874,55.88762],[-4.39221,55.88834],[-4.39263,55.88835],[-4.39368,55.88748],[-4.39392,55.88745],[-4.39402,55.88754],[-4.39384,55.88782]]]}},{"type":"Feature","properties":{},"geometry":{"type":"Polygon","coordinates":[[[-4.29929,55.86881],[-4.29848,55.86869],[-4.29823,55.86876],[-4.29803,55.8687],[-4.29775,55.86871],[-4.29749,55.86877],[-4.29707,55.86898],[-4.2959,55.8693],[-4.29588,55.86935],[-4.29489,55.86964],[-4.29436,55.86948],[-4.29644,55.86894],[-4.29673,55.86883],[-4.29718,55.86854],[-4.29759,55.86841],[-4.29819,55.86835],[-4.29842,55.86828],[-4.29866,55.8683],[-4.29886,55.86844],[-4.29919,55.86852],[-4.2997,55.86858],[-4.30009,55.86858],[-4.30018,55.86882],[-4.29929,55.86881]]]}},{"type":"Feature","properties":{},"geometry":{"type":"Polygon","coordinates":[[[-4.30449,55.86768],[-4.30438,55.86782],[-4.30392,55.86812],[-4.30324,55.86839],[-4.30164,55.86873],[-4.30044,55.86881],[-4.30035,55.86858],[-4.30117,55.86859],[-4.30195,55.86847],[-4.3032,55.8682],[-4.30438,55.86741],[-4.30499,55.86774],[-4.30449,55.86768]]]}},{"type":"Feature","properties":{},"geometry":{"type":"Polygon","coordinates":[[[-4.39274,55.89084],[-4.39215,55.89064],[-4.39214,55.89055],[-4.39345,55.89035],[-4.39484,55.8908],[-4.39274,55.89084]]]}},{"type":"Feature","properties":{},"geometry":{"type":"Polygon","coordinates":[[[-4.39679,55.89076],[-4.39415,55.88999],[-4.39256,55.8896],[-4.3936,55.88875],[-4.39395,55.88875],[-4.39525,55.88902],[-4.39915,55.89004],[-4.40006,55.89035],[-4.40009,55.8907],[-4.39679,55.89076]]]}}]}
